SENTINEL-3A
1 41335U 16011A   26119.26588950  .00000117  00000+0  66591-4 0  9996
2 41335  98.6269 187.3459 0000989 101.4705 258.6587 14.26739862531085
